start=new Date('2022-02-13T00:00:00.000Z').valueOf();
sats=[{"RA_OF_ASC_NODE":"14.1609","MEAN_ELEMENT_THEORY":"SGP4","OBJECT_TYPE":"PAYLOAD","COUNTRY_CODE":"US","MEAN_MOTION_DOT":"0.00006138","RCS_SIZE":"LARGE","GP_ID":"195819080","DECAY_DATE":null,"NORAD_CAT_ID":"48456","MEAN_MOTION_DDOT":"0.0000000000000","OBJECT_ID":"2021-040AE","BSTAR":"0.00043047000000","SITE":"AFETR","INCLINATION":"53.0551","REV_AT_EPOCH":"4259","ELEMENT_SET_NO":"999","PERIOD":"95.591","MEAN_MOTION":"15.06413981","TIME_SYSTEM":"UTC","TLE_LINE2":"2 48456  53.0551  14.1609 0001890  50.0439 310.0716 15.06413981 42594","CENTER_NAME":"EARTH","SEMIMAJOR_AXIS":"6925.306","MEAN_ANOMALY":"310.0716","REF_FRAME":"TEME","LAUNCH_DATE":"2021-05-09","ECCENTRICITY":"0.00018900","EPOCH":"2022-02-12T07:50:02.422752","PERIAPSIS":"545.862","EPHEMERIS_TYPE":"0","TLE_LINE1":"1 48456U 21040AE  22043.32641693  .00006138  00000-0  43047-3 0  9998","CLASSIFICATION_TYPE":"U","FILE":"3298493","APOAPSIS":"548.480","ARG_OF_PERICENTER":"50.0439","OBJECT_NAME":"STARLINK-2508"},{"MEAN_MOTION_DOT":"0.00000431","RCS_SIZE":"LARGE","GP_ID":"195832557","NORAD_CAT_ID":"48458","DECAY_DATE":null,"RA_OF_ASC_NODE":"17.6590","OBJECT_TYPE":"PAYLOAD","COUNTRY_CODE":"US","MEAN_ELEMENT_THEORY":"SGP4","OBJECT_ID":"2021-040AG","BSTAR":"0.00004782300000","MEAN_MOTION_DDOT":"0.0000000000000","TIME_SYSTEM":"UTC","SEMIMAJOR_AXIS":"6925.325","TLE_LINE2":"2 48458  53.0577  17.6590 0001545  66.3598 293.7553 15.06407545 43129","CENTER_NAME":"EARTH","MEAN_ANOMALY":"293.7553","LAUNCH_DATE":"2021-05-09","REF_FRAME":"TEME","SITE":"AFETR","INCLINATION":"53.0577","REV_AT_EPOCH":"4312","MEAN_MOTION":"15.06407545","ELEMENT_SET_NO":"999","PERIOD":"95.592","CLASSIFICATION_TYPE":"U","FILE":"3298990","OBJECT_NAME":"STARLINK-2698","ARG_OF_PERICENTER":"66.3598","APOAPSIS":"548.260","ECCENTRICITY":"0.00015450","EPHEMERIS_TYPE":"0","PERIAPSIS":"546.120","TLE_LINE1":"1 48458U 21040AG  22043.66227208  .00000431  00000-0  47823-4 0  9996","EPOCH":"2022-02-12T15:53:40.307712"},{"RA_OF_ASC_NODE":"18.7012","COUNTRY_CODE":"US","OBJECT_TYPE":"PAYLOAD","MEAN_ELEMENT_THEORY":"SGP4","RCS_SIZE":"LARGE","GP_ID":"195821582","MEAN_MOTION_DOT":"-0.00000022","NORAD_CAT_ID":"48459","DECAY_DATE":null,"MEAN_MOTION_DDOT":"0.0000000000000","OBJECT_ID":"2021-040AH","BSTAR":"0.00001741300000","REV_AT_EPOCH":"4255","SITE":"AFETR","INCLINATION":"53.0565","MEAN_MOTION":"15.06406456","PERIOD":"95.592","ELEMENT_SET_NO":"999","TIME_SYSTEM":"UTC","REF_FRAME":"TEME","LAUNCH_DATE":"2021-05-09","SEMIMAJOR_AXIS":"6925.329","TLE_LINE2":"2 48459  53.0565  18.7012 0001749  61.0993 299.0171 15.06406456 42556","MEAN_ANOMALY":"299.0171","CENTER_NAME":"EARTH","ECCENTRICITY":"0.00017490","TLE_LINE1":"1 48459U 21040AH  22043.43005801 -.00000022  00000-0  17413-4 0  9994","PERIAPSIS":"545.983","EPHEMERIS_TYPE":"0","EPOCH":"2022-02-12T10:19:17.012064","CLASSIFICATION_TYPE":"U","FILE":"3298493","ARG_OF_PERICENTER":"61.0993","OBJECT_NAME":"STARLINK-2579","APOAPSIS":"548.405"},{"MEAN_MOTION_DDOT":"0.0000000000000","OBJECT_ID":"2021-040AJ","BSTAR":"0.00000911630000","RA_OF_ASC_NODE":"18.7599","MEAN_ELEMENT_THEORY":"SGP4","OBJECT_TYPE":"PAYLOAD","COUNTRY_CODE":"US","MEAN_MOTION_DOT":"-0.00000146","RCS_SIZE":"LARGE","GP_ID":"195820332","DECAY_DATE":null,"NORAD_CAT_ID":"48460","ECCENTRICITY":"0.00018410","EPOCH":"2022-02-12T09:59:24.845856","PERIAPSIS":"545.912","EPHEMERIS_TYPE":"0","TLE_LINE1":"1 48460U 21040AJ  22043.41625979 -.00000146  00000-0  91163-5 0  9990","FILE":"3298493","CLASSIFICATION_TYPE":"U","APOAPSIS":"548.462","ARG_OF_PERICENTER":"51.0273","OBJECT_NAME":"STARLINK-2582","SITE":"AFETR","INCLINATION":"53.0572","REV_AT_EPOCH":"4305","ELEMENT_SET_NO":"999","PERIOD":"95.592","MEAN_MOTION":"15.06408644","TIME_SYSTEM":"UTC","TLE_LINE2":"2 48460  53.0572  18.7599 0001841  51.0273 309.0880 15.06408644 43055","SEMIMAJOR_AXIS":"6925.322","MEAN_ANOMALY":"309.0880","CENTER_NAME":"EARTH","LAUNCH_DATE":"2021-05-09","REF_FRAME":"TEME"},{"OBJECT_TYPE":"PAYLOAD","COUNTRY_CODE":"US","MEAN_ELEMENT_THEORY":"SGP4","RA_OF_ASC_NODE":"17.7940","NORAD_CAT_ID":"48461","DECAY_DATE":null,"MEAN_MOTION_DOT":"-0.00002069","RCS_SIZE":"LARGE","GP_ID":"195832553","MEAN_MOTION_DDOT":"0.0000000000000","OBJECT_ID":"2021-040AK","BSTAR":"-0.00012000000000","MEAN_MOTION":"15.06408878","ELEMENT_SET_NO":"999","PERIOD":"95.592","INCLINATION":"53.0559","SITE":"AFETR","REV_AT_EPOCH":"4385","SEMIMAJOR_AXIS":"6925.321","TLE_LINE2":"2 48461  53.0559  17.7940 0001833  53.9498 306.1660 15.06408878 43852","CENTER_NAME":"EARTH","MEAN_ANOMALY":"306.1660","LAUNCH_DATE":"2021-05-09","REF_FRAME":"TEME","TIME_SYSTEM":"UTC","PERIAPSIS":"545.917","EPHEMERIS_TYPE":"0","TLE_LINE1":"1 48461U 21040AK  22043.63004536 -.00002069  00000-0 -12000-3 0  9993","EPOCH":"2022-02-12T15:07:15.919104","ECCENTRICITY":"0.00018330","ARG_OF_PERICENTER":"53.9498","OBJECT_NAME":"STARLINK-2693","APOAPSIS":"548.456","CLASSIFICATION_TYPE":"U","FILE":"3298990"},{"CLASSIFICATION_TYPE":"U","FILE":"3298990","ARG_OF_PERICENTER":"59.7635","OBJECT_NAME":"STARLINK-2683","APOAPSIS":"548.379","ECCENTRICITY":"0.00016630","TLE_LINE1":"1 48462U 21040AL  22043.85164322 -.00000918  00000-0 -42740-4 0  9994","EPHEMERIS_TYPE":"0","PERIAPSIS":"546.076","EPOCH":"2022-02-12T20:26:21.974208","TIME_SYSTEM":"UTC","REF_FRAME":"TEME","LAUNCH_DATE":"2021-05-09","CENTER_NAME":"EARTH","TLE_LINE2":"2 48462  53.0546  21.7914 0001663  59.7635 300.3518 15.06395378 43143","SEMIMAJOR_AXIS":"6925.363","MEAN_ANOMALY":"300.3518","REV_AT_EPOCH":"4314","INCLINATION":"53.0546","SITE":"AFETR","MEAN_MOTION":"15.06395378","PERIOD":"95.592","ELEMENT_SET_NO":"999","BSTAR":"-0.00004274000000","OBJECT_ID":"2021-040AL","MEAN_MOTION_DDOT":"0.0000000000000","GP_ID":"195832551","RCS_SIZE":"LARGE","MEAN_MOTION_DOT":"-0.00000918","NORAD_CAT_ID":"48462","DECAY_DATE":null,"RA_OF_ASC_NODE":"21.7914","COUNTRY_CODE":"US","OBJECT_TYPE":"PAYLOAD","MEAN_ELEMENT_THEORY":"SGP4"},{"NORAD_CAT_ID":"48463","DECAY_DATE":null,"GP_ID":"195820082","RCS_SIZE":"LARGE","MEAN_MOTION_DOT":"0.00009200","COUNTRY_CODE":"US","OBJECT_TYPE":"PAYLOAD","MEAN_ELEMENT_THEORY":"SGP4","RA_OF_ASC_NODE":"24.3466","OBJECT_ID":"2021-040AM","BSTAR":"0.00063530000000","MEAN_MOTION_DDOT":"0.0000000000000","REF_FRAME":"TEME","LAUNCH_DATE":"2021-05-09","CENTER_NAME":"EARTH","TLE_LINE2":"2 48463  53.0545  24.3466 0001779  58.3167 301.7996 15.06424848 42461","SEMIMAJOR_AXIS":"6925.272","MEAN_ANOMALY":"301.7996","TIME_SYSTEM":"UTC","MEAN_MOTION":"15.06424848","PERIOD":"95.591","ELEMENT_SET_NO":"999","REV_AT_EPOCH":"4246","INCLINATION":"53.0545","SITE":"AFETR","ARG_OF_PERICENTER":"58.3167","OBJECT_NAME":"STARLINK-2689","APOAPSIS":"548.369","FILE":"3298493","CLASSIFICATION_TYPE":"U","TLE_LINE1":"1 48463U 21040AM  22043.28768400  .00009200  00000-0  63530-3 0  9999","PERIAPSIS":"545.905","EPHEMERIS_TYPE":"0","EPOCH":"2022-02-12T06:54:15.897600","ECCENTRICITY":"0.00017790"},{"TIME_SYSTEM":"UTC","MEAN_ANOMALY":"301.8063","TLE_LINE2":"2 48464  53.0553  22.6543 0001657  58.3087 301.8063 15.06401271 43792","SEMIMAJOR_AXIS":"6925.345","CENTER_NAME":"EARTH","REF_FRAME":"TEME","LAUNCH_DATE":"2021-05-09","SITE":"AFETR","INCLINATION":"53.0553","REV_AT_EPOCH":"4379","ELEMENT_SET_NO":"999","PERIOD":"95.592","MEAN_MOTION":"15.06401271","FILE":"3298990","CLASSIFICATION_TYPE":"U","APOAPSIS":"548.357","OBJECT_NAME":"STARLINK-2686","ARG_OF_PERICENTER":"58.3087","ECCENTRICITY":"0.00016570","EPOCH":"2022-02-12T15:57:01.568736","PERIAPSIS":"546.062","EPHEMERIS_TYPE":"0","TLE_LINE1":"1 48464U 21040AN  22043.66460149 -.00000575  00000-0 -19705-4 0  9995","MEAN_MOTION_DOT":"-0.00000575","GP_ID":"195832218","RCS_SIZE":"LARGE","DECAY_DATE":null,"NORAD_CAT_ID":"48464","RA_OF_ASC_NODE":"22.6543","MEAN_ELEMENT_THEORY":"SGP4","OBJECT_TYPE":"PAYLOAD","COUNTRY_CODE":"US","OBJECT_ID":"2021-040AN","BSTAR":"-0.00001970500000","MEAN_MOTION_DDOT":"0.0000000000000"},{"NORAD_CAT_ID":"48465","DECAY_DATE":null,"GP_ID":"195832212","RCS_SIZE":"LARGE","MEAN_MOTION_DOT":"-0.00001694","COUNTRY_CODE":"US","OBJECT_TYPE":"PAYLOAD","MEAN_ELEMENT_THEORY":"SGP4","RA_OF_ASC_NODE":"22.6005","OBJECT_ID":"2021-040AP","BSTAR":"-0.00009482500000","MEAN_MOTION_DDOT":"0.0000000000000","REF_FRAME":"TEME","LAUNCH_DATE":"2021-05-09","TLE_LINE2":"2 48465  53.0549  22.6005 0001638  63.2476 296.8680 15.06406399 43791","SEMIMAJOR_AXIS":"6925.329","MEAN_ANOMALY":"296.8680","CENTER_NAME":"EARTH","TIME_SYSTEM":"UTC","MEAN_MOTION":"15.06406399","PERIOD":"95.592","ELEMENT_SET_NO":"999","REV_AT_EPOCH":"4379","INCLINATION":"53.0549","SITE":"AFETR","ARG_OF_PERICENTER":"63.2476","OBJECT_NAME":"STARLINK-2681","APOAPSIS":"548.328","FILE":"3298990","CLASSIFICATION_TYPE":"U","TLE_LINE1":"1 48465U 21040AP  22043.67564716 -.00001694  00000-0 -94825-4 0  9991","PERIAPSIS":"546.060","EPHEMERIS_TYPE":"0","EPOCH":"2022-02-12T16:12:55.914624","ECCENTRICITY":"0.00016380"},{"EPOCH":"2022-02-12T11:05:05.951616","PERIAPSIS":"546.030","EPHEMERIS_TYPE":"0","TLE_LINE1":"1 48466U 21040AQ  22043.46187444 -.00000212  00000-0  46558-5 0  9993","ECCENTRICITY":"0.00016670","APOAPSIS":"548.338","ARG_OF_PERICENTER":"55.0416","OBJECT_NAME":"STARLINK-2687","FILE":"3298493","CLASSIFICATION_TYPE":"U","ELEMENT_SET_NO":"999","PERIOD":"95.592","MEAN_MOTION":"15.06409648","INCLINATION":"53.0556","SITE":"AFETR","REV_AT_EPOCH":"4249","SEMIMAJOR_AXIS":"6925.319","TLE_LINE2":"2 48466  53.0556  23.5585 0001667  55.0416 305.0730 15.06409648 42493","CENTER_NAME":"EARTH","MEAN_ANOMALY":"305.0730","REF_FRAME":"TEME","LAUNCH_DATE":"2021-05-09","TIME_SYSTEM":"UTC","MEAN_MOTION_DDOT":"0.0000000000000","BSTAR":"0.00000465580000","OBJECT_ID":"2021-040AQ","MEAN_ELEMENT_THEORY":"SGP4","OBJECT_TYPE":"PAYLOAD","COUNTRY_CODE":"US","RA_OF_ASC_NODE":"23.5585","DECAY_DATE":null,"NORAD_CAT_ID":"48466","MEAN_MOTION_DOT":"-0.00000212","RCS_SIZE":"LARGE","GP_ID":"195819331"}];
